{"fetched_at":"2026-04-03T05:46:27Z","count":9232,"tles":[{"name":"RASSVET-3 6","line1":"1 68365U 26061F   26090.65719027  .00077066  90660-6  26705-3 0  9993","line2":"2 68365  82.2971  99.7112 0026941  44.7847 315.5592 15.88687592  1262","category":"Other"}]}